[{"OBJECT_NAME":"FLOCK 4G-13","OBJECT_ID":"2025-009N","EPOCH":"2026-03-09T16:57:12.071808","MEAN_MOTION":15.32770015,"ECCENTRICITY":0.0003801,"INCLINATION":97.4019,"RA_OF_ASC_NODE":151.0918,"ARG_OF_PERICENTER":292.7207,"MEAN_ANOMALY":67.3633,"EPHEMERIS_TYPE":0,"CLASSIFICATION_TYPE":"U","NORAD_CAT_ID":62621,"ELEMENT_SET_NO":999,"REV_AT_EPOCH":6370,"BSTAR":0.0016695386,"MEAN_MOTION_DOT":0.00053076,"MEAN_MOTION_DDOT":0},{"OBJECT_NAME":"STARLINK-32869","OBJECT_ID":"2025-022F","EPOCH":"2026-03-09T10:31:35.933376","MEAN_MOTION":15.30199869,"ECCENTRICITY":0.00014333,"INCLINATION":53.1593,"RA_OF_ASC_NODE":130.6268,"ARG_OF_PERICENTER":88.6744,"MEAN_ANOMALY":271.4421,"EPHEMERIS_TYPE":0,"CLASSIFICATION_TYPE":"U","NORAD_CAT_ID":62859,"ELEMENT_SET_NO":999,"REV_AT_EPOCH":6186,"BSTAR":0.0011405944,"MEAN_MOTION_DOT":0.00033575,"MEAN_MOTION_DDOT":0}]
