FLOCK 4G-13             
1 62621U 25009N   26068.70638971  .00053076  00000+0  16695-2 0  9995
2 62621  97.4019 151.0918 0003801 292.7207  67.3633 15.32770015 63700
STARLINK-32869          
1 62859U 25022F   26068.43861034  .00033575  00000+0  11406-2 0  9998
2 62859  53.1593 130.6268 0001433  88.6744 271.4421 15.30199869 61865
